{
  "norad_id": 45854,
  "name": "NAVSTAR 79 (USA 304)",
  "history": [
    {
      "epoch": "2026-03-28T16:57:19.643904Z",
      "apogee_km": 20346.29026829405,
      "perigee_km": 20018.751671195387,
      "latitude_deg": 3.3300041987196445,
      "longitude_deg": 129.4025910081873,
      "height_km": 20039.247615716107,
      "semi_major_axis_km": 26560.657969744716,
      "eccentricity": 0.00616586,
      "inclination_deg": 56.6214,
      "raan_deg": 32.0661,
      "arg_perigee_deg": 205.253,
      "mean_anomaly_deg": 331.039,
      "mean_motion_rev_day": 2.00560091
    }
  ]
}